H1 CPF 01  gfz 2022 08 07 12  7192 terrasarx 
H2 0702601  6201 31698    2022 08 07 12 59 42 2022 08 12 00 00 42   120 1 1  0 0 0
H9
10 0 59799  26622.000000  0    5312415.316  -2495905.007  -3614860.903
10 0 59799  26742.000000  0    4759765.808  -2440888.397  -4348839.524
10 0 59799  26862.000000  0    4125751.425  -2333030.588  -5006638.035
10 0 59799  26982.000000  0    3422396.189  -2172932.269  -5576826.775
10 0 59799  27102.000000  0    2662879.287  -1962315.176  -6049525.096
10 0 59799  27222.000000  0    1861285.004  -1704006.393  -6416562.024
10 0 59799  27342.000000  0    1032339.725  -1401900.136  -6671607.898
10 0 59799  27462.000000  0     191142.415  -1060898.135  -6810272.303
10 0 59799  27582.000000  0    -647105.895   -686830.535  -6830171.144
10 0 59799  27702.000000  0   -1467370.295   -286358.093  -6730962.901
10 0 59799  27822.000000  0   -2255045.793    133143.816  -6514353.643
10 0 59799  27942.000000  0   -2996211.177    563717.230  -6184069.923
10 0 59799  28062.000000  0   -3677870.178    996967.912  -5745802.117
10 0 59799  28182.000000  0   -4288179.028   1424224.278  -5207117.081
10 0 59799  28302.000000  0   -4816655.426   1836706.657  -4577339.349
10 0 59799  28422.000000  0   -5254365.467   2225705.617  -3867400.901
10 0 59799  28542.000000  0   -5594082.968   2582763.072  -3089660.327
10 0 59799  28662.000000  0   -5830419.285   2899853.668  -2257695.106
10 0 59799  28782.000000  0   -5959919.962   3169562.637  -1386067.987
10 0 59799  28902.000000  0   -5981124.076   3385255.817   -490071.186
10 0 59799  29022.000000  0   -5894584.341   3541236.850    414546.323
10 0 59799  29142.000000  0   -5702846.898   3632886.770   1311864.013
10 0 59799  29262.000000  0   -5410388.738   3656782.503   2186079.207
10 0 59799  29382.000000  0   -5023516.434   3610791.318   3021793.901
10 0 59799  29502.000000  0   -4550229.587   3494138.551   3804293.577
10 0 59799  29622.000000  0   -4000050.602   3307446.949   4519812.285
10 0 59799  29742.000000  0   -3383827.003   3052746.460   5155776.578
10 0 59799  29862.000000  0   -2713511.373   2733456.490   5701026.671
10 0 59799  29982.000000  0   -2001922.425   2354339.243   6146009.239
10 0 59799  30102.000000  0   -1262494.382   1921425.801   6482939.828
10 0 59799  30222.000000  0    -509019.504   1441917.098   6705931.333
10 0 59799  30342.000000  0     244608.953    924062.024   6811090.579
10 0 59799  30462.000000  0     984652.512    377014.579   6796582.061
10 0 59799  30582.000000  0    1697776.755   -189327.431   6662657.687
10 0 59799  30702.000000  0    2371290.542   -764500.689   6411653.416
10 0 59799  30822.000000  0    2993371.763  -1337669.023   6047951.722
10 0 59799  30942.000000  0    3553277.221  -1897826.777   5577910.629
10 0 59799  31062.000000  0    4041532.059  -2434010.524   5009757.831
10 0 59799  31182.000000  0    4450094.740  -2935514.240   4353452.614
10 0 59799  31302.000000  0    4772495.764  -3392105.818   3620516.803
10 0 59799  31422.000000  0    5003947.008  -3794239.045   2823835.029
10 0 59799  31542.000000  0    5141418.110  -4133255.483   1977426.896
10 0 59799  31662.000000  0    5183676.442  -4401571.842   1096196.625
10 0 59799  31782.000000  0    5131291.402  -4592848.539    195664.902
10 0 59799  31902.000000  0    4986602.340  -4702134.940   -708312.189
10 0 59799  32022.000000  0    4753650.334  -4725986.700  -1599831.461
10 0 59799  32142.000000  0    4438075.441  -4662552.362  -2463231.006
10 0 59799  32262.000000  0    4046982.698  -4511627.250  -3283371.923
10 0 59799  32382.000000  0    3588780.509  -4274674.051  -4045907.455
10 0 59799  32502.000000  0    3072996.472  -3954809.389  -4737534.292
10 0 59799  32622.000000  0    2510074.408  -3556757.749  -5346220.875
10 0 59799  32742.000000  0    1911159.001  -3086774.936  -5861408.020
10 0 59799  32862.000000  0    1287874.451  -2552544.625  -6274181.581
10 0 59799  32982.000000  0     652098.937  -1963048.969  -6577417.156
10 0 59799  33102.000000  0      15739.690  -1328414.228  -6765892.548
10 0 59799  33222.000000  0    -609485.965   -659736.482  -6836367.347
10 0 59799  33342.000000  0   -1212260.635     31109.436  -6787631.832
10 0 59799  33462.000000  0   -1781867.078    731675.781  -6620524.957
10 0 59799  33582.000000  0   -2308374.277   1429160.331  -6337921.210
10 0 59799  33702.000000  0   -2782806.896   2110634.519  -5944686.573
10 0 59799  33822.000000  0   -3197297.444   2763278.139  -5447604.387
10 0 59799  33942.000000  0   -3545218.611   3374618.750  -4855270.239
10 0 59799  34062.000000  0   -3821293.978   3932770.765  -4177954.523
10 0 59799  34182.000000  0   -4021682.669   4426669.241  -3427433.453
10 0 59799  34302.000000  0   -4144035.581   4846293.401  -2616792.271
10 0 59799  34422.000000  0   -4187524.271   5182875.508  -1760202.754
10 0 59799  34542.000000  0   -4152840.607   5429090.075   -872677.448
10 0 59799  34662.000000  0   -4042165.396   5579219.005     30196.808
10 0 59799  34782.000000  0   -3859105.730   5629284.378    932538.881
10 0 59799  34902.000000  0   -3608603.724   5577148.838   1818460.885
10 0 59799  35022.000000  0   -3296817.606   5422578.580   2672358.786
10 0 59799  35142.000000  0   -2930976.624   5167265.642   3479196.321
10 0 59799  35262.000000  0   -2519216.632   4814811.639   4224775.006
10 0 59799  35382.000000  0   -2070400.061   4370674.098   4895987.534
10 0 59799  35502.000000  0   -1593925.010   3842075.787   5481049.132
10 0 59799  35622.000000  0   -1099527.114   3237879.501   5969702.708
10 0 59799  35742.000000  0    -597079.753   2568431.707   6353393.598
10 0 59799  35862.000000  0     -96397.325   1845379.367   6625412.575
10 0 59799  35982.000000  0     392955.517   1081464.177   6781007.708
10 0 59799  36102.000000  0     861846.041    290295.643   6817461.943
10 0 59799  36222.000000  0    1301742.705   -513890.568   6734137.141
10 0 59799  36342.000000  0    1704869.659  -1316488.134   6532485.658
10 0 59799  36462.000000  0    2064344.261  -2102784.640   6216026.653
10 0 59799  36582.000000  0    2374295.494  -2858231.479   5790289.542
10 0 59799  36702.000000  0    2629961.702  -3568715.060   5262722.779
10 0 59799  36822.000000  0    2827764.917  -4220823.619   4642568.930
10 0 59799  36942.000000  0    2965361.637  -4802105.660   3940708.710
10 0 59799  37062.000000  0    3041668.670  -5301314.720   3169472.945
10 0 59799  37182.000000  0    3056862.762  -5708634.624   2342427.078
10 0 59799  37302.000000  0    3012353.399  -6015880.029   1474129.927
10 0 59799  37422.000000  0    2910729.409  -6216665.743    579872.868
10 0 59799  37542.000000  0    2755682.524  -6306542.585   -324595.224
10 0 59799  37662.000000  0    2551907.218  -6283096.477  -1223354.596
10 0 59799  37782.000000  0    2304979.243  -6146003.808  -2100604.748
10 0 59799  37902.000000  0    2021217.653  -5897045.933  -2940949.144
10 0 59799  38022.000000  0    1707531.793  -5540081.222  -3729672.441
10 0 59799  38142.000000  0    1371258.995  -5080973.545  -4452999.010
10 0 59799  38262.000000  0    1019999.491  -4527483.835  -5098330.618
10 0 59799  38382.000000  0     661449.808  -3889127.846  -5654459.489
10 0 59799  38502.000000  0     303238.853  -3177002.814  -6111754.217
10 0 59799  38622.000000  0     -47229.743  -2403587.333  -6462315.445
10 0 59799  38742.000000  0    -382925.947  -1582519.165  -6700100.799
10 0 59799  38862.000000  0    -697329.611   -728355.066  -6821018.903
10 0 59799  38982.000000  0    -984552.571    143684.382  -6822992.414
10 0 59799  39102.000000  0   -1239445.717   1017980.174  -6705988.564
10 0 59799  39222.000000  0   -1457689.127   1878787.291  -6472019.479
10 0 59799  39342.000000  0   -1635863.649   2710510.958  -6125111.219
10 0 59799  39462.000000  0   -1771504.292   3497984.235  -5671243.554
10 0 59799  39582.000000  0   -1863133.720   4226742.800  -5118256.832
10 0 59799  39702.000000  0   -1910275.619   4883292.363  -4475728.478
10 0 59799  39822.000000  0   -1913447.594   5455364.265  -3754817.274
10 0 59799  39942.000000  0   -1874132.565   5932152.187  -2968077.739
10 0 59799  40062.000000  0   -1794729.181   6304525.808  -2129248.272
10 0 59799  40182.000000  0   -1678482.948   6565217.432  -1253014.142
10 0 59799  40302.000000  0   -1529398.435   6708974.092   -354749.367
10 0 59799  40422.000000  0   -1352134.847   6732673.186    549756.150
10 0 59799  40542.000000  0   -1151886.851   6635397.885   1444582.828
10 0 59799  40662.000000  0    -934254.088   6418464.252   2313973.176
10 0 59799  40782.000000  0    -705102.253   6085401.970   3142617.464
10 0 59799  40902.000000  0    -470420.234   5641892.573   3915929.263
10 0 59799  41022.000000  0    -236177.232   5095666.855   4620306.966
10 0 59799  41142.000000  0      -8182.106   4456359.233   5243378.290
10 0 59799  41262.000000  0     208052.008   3735325.783   5774213.212
10 0 59799  41382.000000  0     407432.341   2945435.777   6203512.660
10 0 59799  41502.000000  0     585399.237   2100833.506   6523766.330
10 0 59799  41622.000000  0     738024.829   1216680.198   6729377.830
10 0 59799  41742.000000  0     862095.697    308878.643   6816756.559
10 0 59799  41862.000000  0     955178.183   -606212.280   6784375.905
10 0 59799  41982.000000  0    1015665.304  -1512071.624   6632799.591
10 0 59799  42102.000000  0    1042804.562  -2392314.377   6364672.793
10 0 59799  42222.000000  0    1036706.243  -3230988.478   5984679.522
10 0 59799  42342.000000  0     998331.246  -4012866.353   5499464.300
10 0 59799  42462.000000  0     929460.359  -4723723.298   4917520.701
10 0 59799  42582.000000  0     832645.237  -5350601.114   4249049.760
10 0 59799  42702.000000  0     711141.239  -5882053.710   3505786.826
10 0 59799  42822.000000  0     568823.257  -6308366.685   2700797.422
10 0 59799  42942.000000  0     410086.222  -6621744.823   1848246.676
10 0 59799  43062.000000  0     239732.637  -6816463.238    963147.207
99
